{
  "type": "FeatureCollection",
  "features": [
    {
      "type": "Feature",
      "properties": {
        "norad_id": 34350,
        "name": "IRIDIUM 33 DEB",
        "group": "iridium-33-debris",
        "lat": 84.72350507455977,
        "lon": 137.41994950083932,
        "alt_km": 719.3500032645115,
        "timestamp": "2025-12-15T19:00:45.743661+00:00",
        "meta_object_name": "IRIDIUM 33 DEB",
        "meta_object_id": "1997-051ES",
        "meta_epoch": "2025-12-14T07:45:39.237120",
        "meta_mean_motion": 14.45391202,
        "meta_eccentricity": 0.00229581,
        "meta_inclination": 86.3275,
        "meta_ra_of_asc_node": 2.12,
        "meta_arg_of_pericenter": 130.2714,
        "meta_mean_anomaly": 245.6158,
        "meta_ephemeris_type": 0,
        "meta_classification_type": "U",
        "meta_norad_cat_id": 34350,
        "meta_element_set_no": 999,
        "meta_rev_at_epoch": 88316,
        "meta_bstar": 0.00041566324,
        "meta_mean_motion_dot": 1.486e-05,
        "meta_mean_motion_ddot": 0,
        "tle_line1": "1 34350U 97051ES  25348.32337080  .00001486  00000+0  41566-3 0  9998",
        "tle_line2": "2 34350  86.3275   2.1200 0022958 130.2714 245.6158 14.45391202883165"
      },
      "geometry": {
        "type": "Point",
        "coordinates": [
          137.41994950083932,
          84.72350507455977
        ]
      }
    },
    {
      "type": "Feature",
      "properties": {
        "norad_id": 34366,
        "name": "IRIDIUM 33 DEB",
        "group": "iridium-33-debris",
        "lat": 22.566063967865194,
        "lon": -133.5256685681094,
        "alt_km": 697.8631895125918,
        "timestamp": "2025-12-15T19:00:45.743687+00:00",
        "meta_object_name": "IRIDIUM 33 DEB",
        "meta_object_id": "1997-051FJ",
        "meta_epoch": "2025-12-14T16:27:37.334592",
        "meta_mean_motion": 14.54079263,
        "meta_eccentricity": 0.00225948,
        "meta_inclination": 86.3699,
        "meta_ra_of_asc_node": 48.4671,
        "meta_arg_of_pericenter": 133.4897,
        "meta_mean_anomaly": 356.0007,
        "meta_ephemeris_type": 0,
        "meta_classification_type": "U",
        "meta_norad_cat_id": 34366,
        "meta_element_set_no": 999,
        "meta_rev_at_epoch": 88210,
        "meta_bstar": 0.00084938669,
        "meta_mean_motion_dot": 3.618e-05,
        "meta_mean_motion_ddot": 0,
        "tle_line1": "1 34366U 97051FJ  25348.68584878  .00003618  00000+0  84939-3 0  9993",
        "tle_line2": "2 34366  86.3699  48.4671 0022594 133.4897 356.0007 14.54079263882103"
      },
      "geometry": {
        "type": "Point",
        "coordinates": [
          -133.5256685681094,
          22.566063967865194
        ]
      }
    },
    {
      "type": "Feature",
      "properties": {
        "norad_id": 34375,
        "name": "IRIDIUM 33 DEB",
        "group": "iridium-33-debris",
        "lat": 35.05946348425911,
        "lon": -176.02205306215347,
        "alt_km": 818.5865723702373,
        "timestamp": "2025-12-15T19:00:45.743700+00:00",
        "meta_object_name": "IRIDIUM 33 DEB",
        "meta_object_id": "1997-051FT",
        "meta_epoch": "2025-12-14T23:15:44.995392",
        "meta_mean_motion": 14.17996114,
        "meta_eccentricity": 0.01034399,
        "meta_inclination": 86.4325,
        "meta_ra_of_asc_node": 181.8005,
        "meta_arg_of_pericenter": 119.7401,
        "meta_mean_anomaly": 38.4178,
        "meta_ephemeris_type": 0,
        "meta_classification_type": "U",
        "meta_norad_cat_id": 34375,
        "meta_element_set_no": 999,
        "meta_rev_at_epoch": 86743,
        "meta_bstar": 0.00043772689,
        "meta_mean_motion_dot": 9.64e-06,
        "meta_mean_motion_ddot": 0,
        "tle_line1": "1 34375U 97051FT  25348.96927078  .00000964  00000+0  43773-3 0  9999",
        "tle_line2": "2 34375  86.4325 181.8005 0103439 119.7401  38.4178 14.17996114867430"
      },
      "geometry": {
        "type": "Point",
        "coordinates": [
          -176.02205306215347,
          35.05946348425911
        ]
      }
    },
    {
      "type": "Feature",
      "properties": {
        "norad_id": 34376,
        "name": "IRIDIUM 33 DEB",
        "group": "iridium-33-debris",
        "lat": 1.6133569736280646,
        "lon": -174.93652837290068,
        "alt_km": 669.63914190794,
        "timestamp": "2025-12-15T19:00:45.743710+00:00",
        "meta_object_name": "IRIDIUM 33 DEB",
        "meta_object_id": "1997-051FU",
        "meta_epoch": "2025-12-14T19:12:49.184064",
        "meta_mean_motion": 14.6260256,
        "meta_eccentricity": 0.00274222,
        "meta_inclination": 86.2985,
        "meta_ra_of_asc_node": 5.6136,
        "meta_arg_of_pericenter": 159.8088,
        "meta_mean_anomaly": 200.4214,
        "meta_ephemeris_type": 0,
        "meta_classification_type": "U",
        "meta_norad_cat_id": 34376,
        "meta_element_set_no": 999,
        "meta_rev_at_epoch": 88037,
        "meta_bstar": 0.00097473546,
        "meta_mean_motion_dot": 5e-05,
        "meta_mean_motion_ddot": 0,
        "tle_line1": "1 34376U 97051FU  25348.80056926  .00005000  00000+0  97474-3 0  9991",
        "tle_line2": "2 34376  86.2985   5.6136 0027422 159.8088 200.4214 14.62602560880371"
      },
      "geometry": {
        "type": "Point",
        "coordinates": [
          -174.93652837290068,
          1.6133569736280646
        ]
      }
    },
    {
      "type": "Feature",
      "properties": {
        "norad_id": 34486,
        "name": "IRIDIUM 33 DEB",
        "group": "iridium-33-debris",
        "lat": 39.70692293822733,
        "lon": 13.618739335009252,
        "alt_km": 572.2632006133836,
        "timestamp": "2025-12-15T19:00:45.743721+00:00",
        "meta_object_name": "IRIDIUM 33 DEB",
        "meta_object_id": "1997-051GB",
        "meta_epoch": "2025-12-14T19:32:13.539840",
        "meta_mean_motion": 14.9591553,
        "meta_eccentricity": 0.00138725,
        "meta_inclination": 86.3934,
        "meta_ra_of_asc_node": 11.0678,
        "meta_arg_of_pericenter": 107.504,
        "meta_mean_anomaly": 68.3575,
        "meta_ephemeris_type": 0,
        "meta_classification_type": "U",
        "meta_norad_cat_id": 34486,
        "meta_element_set_no": 999,
        "meta_rev_at_epoch": 89017,
        "meta_bstar": 0.0016186556,
        "meta_mean_motion_dot": 0.00018197,
        "meta_mean_motion_ddot": 0,
        "tle_line1": "1 34486U 97051GB  25348.81404560  .00018197  00000+0  16187-2 0  9997",
        "tle_line2": "2 34486  86.3934  11.0678 0013872 107.5040  68.3575 14.95915530890172"
      },
      "geometry": {
        "type": "Point",
        "coordinates": [
          13.618739335009252,
          39.70692293822733
        ]
      }
    },
    {
      "type": "Feature",
      "properties": {
        "norad_id": 34487,
        "name": "IRIDIUM 33 DEB",
        "group": "iridium-33-debris",
        "lat": -17.92285963660083,
        "lon": -167.75157124568736,
        "alt_km": 748.4850950509963,
        "timestamp": "2025-12-15T19:00:45.743731+00:00",
        "meta_object_name": "IRIDIUM 33 DEB",
        "meta_object_id": "1997-051GC",
        "meta_epoch": "2025-12-14T19:37:15.285792",
        "meta_mean_motion": 14.43218974,
        "meta_eccentricity": 0.00328977,
        "meta_inclination": 86.3435,
        "meta_ra_of_asc_node": 11.4828,
        "meta_arg_of_pericenter": 121.8629,
        "meta_mean_anomaly": 54.9106,
        "meta_ephemeris_type": 0,
        "meta_classification_type": "U",
        "meta_norad_cat_id": 34487,
        "meta_element_set_no": 999,
        "meta_rev_at_epoch": 88278,
        "meta_bstar": 0.00021232189,
        "meta_mean_motion_dot": 7.39e-06,
        "meta_mean_motion_ddot": 0,
        "tle_line1": "1 34487U 97051GC  25348.81753803  .00000739  00000+0  21232-3 0  9996",
        "tle_line2": "2 34487  86.3435  11.4828 0032897 121.8629  54.9106 14.43218974882780"
      },
      "geometry": {
        "type": "Point",
        "coordinates": [
          -167.75157124568736,
          -17.92285963660083
        ]
      }
    },
    {
      "type": "Feature",
      "properties": {
        "norad_id": 34488,
        "name": "IRIDIUM 33 DEB",
        "group": "iridium-33-debris",
        "lat": 36.27179687603572,
        "lon": -52.994598131815614,
        "alt_km": 463.75602732491916,
        "timestamp": "2025-12-15T19:00:45.743742+00:00",
        "meta_object_name": "IRIDIUM 33 DEB",
        "meta_object_id": "1997-051GD",
        "meta_epoch": "2025-12-13T21:20:06.708192",
        "meta_mean_motion": 15.29804687,
        "meta_eccentricity": 0.00127774,
        "meta_inclination": 86.3232,
        "meta_ra_of_asc_node": 305.2445,
        "meta_arg_of_pericenter": 49.9187,
        "meta_mean_anomaly": 310.3179,
        "meta_ephemeris_type": 0,
        "meta_classification_type": "U",
        "meta_norad_cat_id": 34488,
        "meta_element_set_no": 999,
        "meta_rev_at_epoch": 89257,
        "meta_bstar": 0.0047409619,
        "meta_mean_motion_dot": 0.00139416,
        "meta_mean_motion_ddot": 0,
        "tle_line1": "1 34488U 97051GD  25347.88896653  .00139416  00000+0  47410-2 0  9994",
        "tle_line2": "2 34488  86.3232 305.2445 0012777  49.9187 310.3179 15.29804687892573"
      },
      "geometry": {
        "type": "Point",
        "coordinates": [
          -52.994598131815614,
          36.27179687603572
        ]
      }
    }
  ]
}